[{"OBJECT_NAME":"STARLINK-3287","OBJECT_ID":"2021-125S","EPOCH":"2026-03-09T18:16:42.439584","MEAN_MOTION":15.08847367,"ECCENTRICITY":0.00010995,"INCLINATION":53.2165,"RA_OF_ASC_NODE":248.7967,"ARG_OF_PERICENTER":109.8238,"MEAN_ANOMALY":250.2873,"EPHEMERIS_TYPE":0,"CLASSIFICATION_TYPE":"U","NORAD_CAT_ID":50172,"ELEMENT_SET_NO":999,"REV_AT_EPOCH":23664,"BSTAR":5.3615758e-5,"MEAN_MOTION_DOT":5.66e-6,"MEAN_MOTION_DDOT":0},{"OBJECT_NAME":"LEMUR-2-KREMPEL-BRO2","OBJECT_ID":"2025-061C","EPOCH":"2026-03-09T20:43:52.091904","MEAN_MOTION":15.13192951,"ECCENTRICITY":0.00179248,"INCLINATION":97.5616,"RA_OF_ASC_NODE":45.5365,"ARG_OF_PERICENTER":236.8576,"MEAN_ANOMALY":123.0936,"EPHEMERIS_TYPE":0,"CLASSIFICATION_TYPE":"U","NORAD_CAT_ID":63353,"ELEMENT_SET_NO":999,"REV_AT_EPOCH":5258,"BSTAR":0.00044346981,"MEAN_MOTION_DOT":7.837e-5,"MEAN_MOTION_DDOT":0}]
