STARLINK-3287           
1 50172U 21125S   26068.76160230  .00000566  00000+0  53616-4 0  9994
2 50172  53.2165 248.7967 0001099 109.8238 250.2873 15.08847367236649
LEMUR-2-KREMPEL-BRO2    
1 63353U 25061C   26068.86379735  .00007837  00000+0  44347-3 0  9993
2 63353  97.5616  45.5365 0017925 236.8576 123.0936 15.13192951 52586
